[{"OBJECT_NAME":"STARLINK-2156","OBJECT_ID":"2021-017W","EPOCH":"2025-10-10T23:13:39.447552","MEAN_MOTION":15.06395443,"ECCENTRICITY":0.00014879,"INCLINATION":53.0519,"RA_OF_ASC_NODE":153.748,"ARG_OF_PERICENTER":100.7855,"MEAN_ANOMALY":259.3302,"EPHEMERIS_TYPE":0,"CLASSIFICATION_TYPE":"U","NORAD_CAT_ID":47742,"ELEMENT_SET_NO":999,"REV_AT_EPOCH":25535,"BSTAR":4.3359964e-5,"MEAN_MOTION_DOT":3.64e-6,"MEAN_MOTION_DDOT":0},{"OBJECT_NAME":"STARLINK-2159","OBJECT_ID":"2021-017Z","EPOCH":"2025-10-10T22:24:34.335072","MEAN_MOTION":15.06400551,"ECCENTRICITY":0.0001279,"INCLINATION":53.0517,"RA_OF_ASC_NODE":163.9019,"ARG_OF_PERICENTER":95.2837,"MEAN_ANOMALY":264.8298,"EPHEMERIS_TYPE":0,"CLASSIFICATION_TYPE":"U","NORAD_CAT_ID":47745,"ELEMENT_SET_NO":999,"REV_AT_EPOCH":25515,"BSTAR":0.00018591,"MEAN_MOTION_DOT":2.489e-5,"MEAN_MOTION_DDOT":0},{"OBJECT_NAME":"STARLINK-2160","OBJECT_ID":"2021-017AA","EPOCH":"2025-10-10T22:13:57.587808","MEAN_MOTION":15.06393494,"ECCENTRICITY":0.0001439,"INCLINATION":53.0535,"RA_OF_ASC_NODE":163.9335,"ARG_OF_PERICENTER":86,"MEAN_ANOMALY":274.1153,"EPHEMERIS_TYPE":0,"CLASSIFICATION_TYPE":"U","NORAD_CAT_ID":47746,"ELEMENT_SET_NO":999,"REV_AT_EPOCH":25514,"BSTAR":0.00016035,"MEAN_MOTION_DOT":2.107e-5,"MEAN_MOTION_DDOT":0},{"OBJECT_NAME":"STARLINK-2161","OBJECT_ID":"2021-017AB","EPOCH":"2025-10-10T22:09:57.919392","MEAN_MOTION":15.06403926,"ECCENTRICITY":0.0001702,"INCLINATION":53.05,"RA_OF_ASC_NODE":153.9441,"ARG_OF_PERICENTER":82.5041,"MEAN_ANOMALY":277.6142,"EPHEMERIS_TYPE":0,"CLASSIFICATION_TYPE":"U","NORAD_CAT_ID":47747,"ELEMENT_SET_NO":999,"REV_AT_EPOCH":25532,"BSTAR":0.00015348,"MEAN_MOTION_DOT":2.006e-5,"MEAN_MOTION_DDOT":0},{"OBJECT_NAME":"STARLINK-2162","OBJECT_ID":"2021-017AC","EPOCH":"2025-10-10T21:59:20.978592","MEAN_MOTION":15.06396881,"ECCENTRICITY":0.0002169,"INCLINATION":53.0565,"RA_OF_ASC_NODE":153.979,"ARG_OF_PERICENTER":87.7162,"MEAN_ANOMALY":272.4076,"EPHEMERIS_TYPE":0,"CLASSIFICATION_TYPE":"U","NORAD_CAT_ID":47748,"ELEMENT_SET_NO":999,"REV_AT_EPOCH":25529,"BSTAR":3.0244e-6,"MEAN_MOTION_DOT":-2.37e-6,"MEAN_MOTION_DDOT":0},{"OBJECT_NAME":"STARLINK-2163","OBJECT_ID":"2021-017AD","EPOCH":"2025-10-10T22:20:34.914624","MEAN_MOTION":15.06397543,"ECCENTRICITY":0.0001371,"INCLINATION":53.0521,"RA_OF_ASC_NODE":153.9113,"ARG_OF_PERICENTER":87.1884,"MEAN_ANOMALY":272.9262,"EPHEMERIS_TYPE":0,"CLASSIFICATION_TYPE":"U","NORAD_CAT_ID":47749,"ELEMENT_SET_NO":999,"REV_AT_EPOCH":25529,"BSTAR":-2.9681e-5,"MEAN_MOTION_DOT":-7.23e-6,"MEAN_MOTION_DDOT":0},{"OBJECT_NAME":"STARLINK-2164","OBJECT_ID":"2021-017AE","EPOCH":"2025-10-10T21:48:43.932384","MEAN_MOTION":15.06393024,"ECCENTRICITY":0.000116,"INCLINATION":53.054,"RA_OF_ASC_NODE":154.0102,"ARG_OF_PERICENTER":86.7099,"MEAN_ANOMALY":273.4023,"EPHEMERIS_TYPE":0,"CLASSIFICATION_TYPE":"U","NORAD_CAT_ID":47750,"ELEMENT_SET_NO":999,"REV_AT_EPOCH":25529,"BSTAR":0.00013268,"MEAN_MOTION_DOT":1.695e-5,"MEAN_MOTION_DDOT":0},{"OBJECT_NAME":"STARLINK-2169","OBJECT_ID":"2021-017AG","EPOCH":"2025-10-10T23:20:57.010848","MEAN_MOTION":15.06400818,"ECCENTRICITY":0.00013178,"INCLINATION":53.0536,"RA_OF_ASC_NODE":158.7206,"ARG_OF_PERICENTER":119.6158,"MEAN_ANOMALY":240.4962,"EPHEMERIS_TYPE":0,"CLASSIFICATION_TYPE":"U","NORAD_CAT_ID":47752,"ELEMENT_SET_NO":999,"REV_AT_EPOCH":25528,"BSTAR":-1.83959e-5,"MEAN_MOTION_DOT":-5.55e-6,"MEAN_MOTION_DDOT":0},{"OBJECT_NAME":"STARLINK-2170","OBJECT_ID":"2021-017AH","EPOCH":"2025-10-10T22:45:48.824064","MEAN_MOTION":15.06394264,"ECCENTRICITY":0.0001235,"INCLINATION":53.0564,"RA_OF_ASC_NODE":163.8354,"ARG_OF_PERICENTER":74.1428,"MEAN_ANOMALY":285.9697,"EPHEMERIS_TYPE":0,"CLASSIFICATION_TYPE":"U","NORAD_CAT_ID":47753,"ELEMENT_SET_NO":999,"REV_AT_EPOCH":25520,"BSTAR":0.00026736,"MEAN_MOTION_DOT":3.703e-5,"MEAN_MOTION_DDOT":0},{"OBJECT_NAME":"STARLINK-2171","OBJECT_ID":"2021-017AJ","EPOCH":"2025-10-10T15:41:09.750048","MEAN_MOTION":15.06411869,"ECCENTRICITY":0.00016361,"INCLINATION":53.052,"RA_OF_ASC_NODE":165.1613,"ARG_OF_PERICENTER":89.9535,"MEAN_ANOMALY":270.1642,"EPHEMERIS_TYPE":0,"CLASSIFICATION_TYPE":"U","NORAD_CAT_ID":47754,"ELEMENT_SET_NO":999,"REV_AT_EPOCH":25512,"BSTAR":0.00012388382,"MEAN_MOTION_DOT":1.565e-5,"MEAN_MOTION_DDOT":0},{"OBJECT_NAME":"STARLINK-2178","OBJECT_ID":"2021-017AQ","EPOCH":"2025-10-10T23:58:46.972128","MEAN_MOTION":15.06394984,"ECCENTRICITY":0.0001556,"INCLINATION":53.0528,"RA_OF_ASC_NODE":173.6087,"ARG_OF_PERICENTER":91.3897,"MEAN_ANOMALY":268.727,"EPHEMERIS_TYPE":0,"CLASSIFICATION_TYPE":"U","NORAD_CAT_ID":47760,"ELEMENT_SET_NO":999,"REV_AT_EPOCH":25505,"BSTAR":0.00020385,"MEAN_MOTION_DOT":2.756e-5,"MEAN_MOTION_DDOT":0},{"OBJECT_NAME":"STARLINK-2180","OBJECT_ID":"2021-017AS","EPOCH":"2025-10-10T23:44:51.440928","MEAN_MOTION":15.06410429,"ECCENTRICITY":0.0001506,"INCLINATION":53.0528,"RA_OF_ASC_NODE":178.6595,"ARG_OF_PERICENTER":85.8345,"MEAN_ANOMALY":274.2816,"EPHEMERIS_TYPE":0,"CLASSIFICATION_TYPE":"U","NORAD_CAT_ID":47762,"ELEMENT_SET_NO":999,"REV_AT_EPOCH":25497,"BSTAR":0.00043712,"MEAN_MOTION_DOT":6.237e-5,"MEAN_MOTION_DDOT":0},{"OBJECT_NAME":"STARLINK-2185","OBJECT_ID":"2021-017AX","EPOCH":"2025-10-10T22:51:06.491808","MEAN_MOTION":15.06395164,"ECCENTRICITY":0.0001164,"INCLINATION":53.0512,"RA_OF_ASC_NODE":163.8173,"ARG_OF_PERICENTER":69.271,"MEAN_ANOMALY":290.8403,"EPHEMERIS_TYPE":0,"CLASSIFICATION_TYPE":"U","NORAD_CAT_ID":47767,"ELEMENT_SET_NO":999,"REV_AT_EPOCH":25521,"BSTAR":0.00038971,"MEAN_MOTION_DOT":5.527e-5,"MEAN_MOTION_DDOT":0},{"OBJECT_NAME":"STARLINK-2193","OBJECT_ID":"2021-017BA","EPOCH":"2025-10-10T22:38:29.671008","MEAN_MOTION":15.0638825,"ECCENTRICITY":0.0001295,"INCLINATION":53.0523,"RA_OF_ASC_NODE":158.8579,"ARG_OF_PERICENTER":99.7388,"MEAN_ANOMALY":260.3748,"EPHEMERIS_TYPE":0,"CLASSIFICATION_TYPE":"U","NORAD_CAT_ID":47770,"ELEMENT_SET_NO":999,"REV_AT_EPOCH":25525,"BSTAR":0.00013651,"MEAN_MOTION_DOT":1.752e-5,"MEAN_MOTION_DDOT":0},{"OBJECT_NAME":"STARLINK-2194","OBJECT_ID":"2021-017BB","EPOCH":"2025-10-10T22:54:26.273664","MEAN_MOTION":15.06394532,"ECCENTRICITY":0.0003839,"INCLINATION":53.0496,"RA_OF_ASC_NODE":158.8032,"ARG_OF_PERICENTER":97.3494,"MEAN_ANOMALY":262.7931,"EPHEMERIS_TYPE":0,"CLASSIFICATION_TYPE":"U","NORAD_CAT_ID":47771,"ELEMENT_SET_NO":999,"REV_AT_EPOCH":25526,"BSTAR":4.8649e-5,"MEAN_MOTION_DOT":4.42e-6,"MEAN_MOTION_DDOT":0},{"OBJECT_NAME":"STARLINK-2195","OBJECT_ID":"2021-017BC","EPOCH":"2025-10-10T16:17:00.632256","MEAN_MOTION":15.06403111,"ECCENTRICITY":0.00016252,"INCLINATION":53.0521,"RA_OF_ASC_NODE":175.0471,"ARG_OF_PERICENTER":85.1893,"MEAN_ANOMALY":274.9282,"EPHEMERIS_TYPE":0,"CLASSIFICATION_TYPE":"U","NORAD_CAT_ID":47772,"ELEMENT_SET_NO":999,"REV_AT_EPOCH":25498,"BSTAR":0.00021471782,"MEAN_MOTION_DOT":2.918e-5,"MEAN_MOTION_DDOT":0}]
