STARLINK-2156           
1 47742U 21017W   25283.96781768  .00000364  00000+0  43360-4 0  9999
2 47742  53.0519 153.7480 0001487 100.7855 259.3302 15.06395443255357
STARLINK-2159           
1 47745U 21017Z   25283.93373073  .00002489  00000+0  18591-3 0  9992
2 47745  53.0517 163.9019 0001279  95.2837 264.8298 15.06400551255156
STARLINK-2160           
1 47746U 21017AA  25283.92636097  .00002107  00000+0  16035-3 0  9998
2 47746  53.0535 163.9335 0001439  86.0000 274.1153 15.06393494255146
STARLINK-2161           
1 47747U 21017AB  25283.92358703  .00002006  00000+0  15348-3 0  9998
2 47747  53.0500 153.9441 0001702  82.5041 277.6142 15.06403926255323
STARLINK-2162           
1 47748U 21017AC  25283.91621503 -.00000237  00000+0  30244-5 0  9998
2 47748  53.0565 153.9790 0002169  87.7162 272.4076 15.06396881255297
STARLINK-2163           
1 47749U 21017AD  25283.93095966 -.00000723  00000+0 -29681-4 0  9992
2 47749  53.0521 153.9113 0001371  87.1884 272.9262 15.06397543255296
STARLINK-2164           
1 47750U 21017AE  25283.90884181  .00001695  00000+0  13268-3 0  9996
2 47750  53.0540 154.0102 0001160  86.7099 273.4023 15.06393024255299
STARLINK-2169           
1 47752U 21017AG  25283.97288207 -.00000555  00000+0 -18396-4 0  9996
2 47752  53.0536 158.7206 0001317 119.6158 240.4962 15.06400818255283
STARLINK-2170           
1 47753U 21017AH  25283.94848176  .00003703  00000+0  26736-3 0  9993
2 47753  53.0564 163.8354 0001235  74.1428 285.9697 15.06394264255208
STARLINK-2171           
1 47754U 21017AJ  25283.65358507  .00001565  00000+0  12388-3 0  9998
2 47754  53.0520 165.1613 0001636  89.9535 270.1642 15.06411869255120
STARLINK-2178           
1 47760U 21017AQ  25283.99915477  .00002756  00000+0  20385-3 0  9996
2 47760  53.0528 173.6087 0001556  91.3897 268.7270 15.06394984255053
STARLINK-2180           
1 47762U 21017AS  25283.98948427  .00006237  00000+0  43712-3 0  9995
2 47762  53.0528 178.6595 0001506  85.8345 274.2816 15.06410429254976
STARLINK-2185           
1 47767U 21017AX  25283.95215847  .00005527  00000+0  38971-3 0  9992
2 47767  53.0512 163.8173 0001164  69.2710 290.8403 15.06395164255216
STARLINK-2193           
1 47770U 21017BA  25283.94339897  .00001752  00000+0  13651-3 0  9991
2 47770  53.0523 158.8579 0001295  99.7388 260.3748 15.06388250255256
STARLINK-2194           
1 47771U 21017BB  25283.95447076  .00000442  00000+0  48649-4 0  9993
2 47771  53.0496 158.8032 0003839  97.3494 262.7931 15.06394532255269
STARLINK-2195           
1 47772U 21017BC  25283.67847954  .00002918  00000+0  21472-3 0  9996
2 47772  53.0521 175.0471 0001625  85.1893 274.9282 15.06403111254982
